{
  "type": "FeatureCollection",
  "features": [
    {
      "type": "Feature",
      "properties": {
        "norad_id": 30050,
        "name": "FENGYUN 1C DEB",
        "group": "fengyun-1c-debris",
        "lat": 4.202874068783858,
        "lon": -52.36677127031528,
        "alt_km": 830.8578418081534,
        "timestamp": "2025-12-14T09:36:23.310030+00:00",
        "meta_object_name": "FENGYUN 1C DEB",
        "meta_object_id": "1999-025PB",
        "meta_epoch": "2025-12-13T15:22:07.452192",
        "meta_mean_motion": 13.8505289,
        "meta_eccentricity": 0.01715297,
        "meta_inclination": 96.8177,
        "meta_ra_of_asc_node": 307.5835,
        "meta_arg_of_pericenter": 27.6137,
        "meta_mean_anomaly": 150.5642,
        "meta_ephemeris_type": 0,
        "meta_classification_type": "U",
        "meta_norad_cat_id": 30050,
        "meta_element_set_no": 999,
        "meta_rev_at_epoch": 95214,
        "meta_bstar": 0.0017738971,
        "meta_mean_motion_dot": 2.226e-05,
        "meta_mean_motion_ddot": 0,
        "tle_line1": "1 30050U 99025PB  25347.64036403  .00002226  00000+0  17739-2 0  9990",
        "tle_line2": "2 30050  96.8177 307.5835 0171529  27.6137 150.5642 13.85052890952145"
      },
      "geometry": {
        "type": "Point",
        "coordinates": [
          -52.36677127031528,
          4.202874068783858
        ]
      }
    },
    {
      "type": "Feature",
      "properties": {
        "norad_id": 30052,
        "name": "FENGYUN 1C DEB",
        "group": "fengyun-1c-debris",
        "lat": -28.436306700990144,
        "lon": -171.14039636387284,
        "alt_km": 792.8743276782916,
        "timestamp": "2025-12-14T09:36:23.310040+00:00",
        "meta_object_name": "FENGYUN 1C DEB",
        "meta_object_id": "1999-025PD",
        "meta_epoch": "2025-12-13T15:40:13.150272",
        "meta_mean_motion": 13.72961452,
        "meta_eccentricity": 0.02890302,
        "meta_inclination": 99.2993,
        "meta_ra_of_asc_node": 13.2231,
        "meta_arg_of_pericenter": 229.8727,
        "meta_mean_anomaly": 248.0453,
        "meta_ephemeris_type": 0,
        "meta_classification_type": "U",
        "meta_norad_cat_id": 30052,
        "meta_element_set_no": 999,
        "meta_rev_at_epoch": 94567,
        "meta_bstar": 0.00062719624,
        "meta_mean_motion_dot": 7.36e-06,
        "meta_mean_motion_ddot": 0,
        "tle_line1": "1 30052U 99025PD  25347.65292998  .00000736  00000+0  62720-3 0  9991",
        "tle_line2": "2 30052  99.2993  13.2231 0289030 229.8727 248.0453 13.72961452945671"
      },
      "geometry": {
        "type": "Point",
        "coordinates": [
          -171.14039636387284,
          -28.436306700990144
        ]
      }
    },
    {
      "type": "Feature",
      "properties": {
        "norad_id": 30053,
        "name": "FENGYUN 1C DEB",
        "group": "fengyun-1c-debris",
        "lat": 7.707702356489277,
        "lon": -17.437022628697104,
        "alt_km": 1144.6758631173589,
        "timestamp": "2025-12-14T09:36:23.310050+00:00",
        "meta_object_name": "FENGYUN 1C DEB",
        "meta_object_id": "1999-025PE",
        "meta_epoch": "2025-12-13T10:30:52.037856",
        "meta_mean_motion": 13.9414545,
        "meta_eccentricity": 0.03315045,
        "meta_inclination": 98.5755,
        "meta_ra_of_asc_node": 160.4976,
        "meta_arg_of_pericenter": 336.4704,
        "meta_mean_anomaly": 50.4548,
        "meta_ephemeris_type": 0,
        "meta_classification_type": "U",
        "meta_norad_cat_id": 30053,
        "meta_element_set_no": 999,
        "meta_rev_at_epoch": 94996,
        "meta_bstar": 0.0021297677,
        "meta_mean_motion_dot": 4.416e-05,
        "meta_mean_motion_ddot": 0,
        "tle_line1": "1 30053U 99025PE  25347.43810229  .00004416  00000+0  21298-2 0  9994",
        "tle_line2": "2 30053  98.5755 160.4976 0331504 336.4704  50.4548 13.94145450949967"
      },
      "geometry": {
        "type": "Point",
        "coordinates": [
          -17.437022628697104,
          7.707702356489277
        ]
      }
    },
    {
      "type": "Feature",
      "properties": {
        "norad_id": 30054,
        "name": "FENGYUN 1C DEB",
        "group": "fengyun-1c-debris",
        "lat": 49.85915548786,
        "lon": -148.11369451272924,
        "alt_km": 1117.7512307566685,
        "timestamp": "2025-12-14T09:36:23.310061+00:00",
        "meta_object_name": "FENGYUN 1C DEB",
        "meta_object_id": "1999-025PF",
        "meta_epoch": "2025-12-13T16:03:34.487424",
        "meta_mean_motion": 13.69866292,
        "meta_eccentricity": 0.02758089,
        "meta_inclination": 99.3717,
        "meta_ra_of_asc_node": 19.8806,
        "meta_arg_of_pericenter": 2.8447,
        "meta_mean_anomaly": 120.149,
        "meta_ephemeris_type": 0,
        "meta_classification_type": "U",
        "meta_norad_cat_id": 30054,
        "meta_element_set_no": 999,
        "meta_rev_at_epoch": 94361,
        "meta_bstar": 0.00070896837,
        "meta_mean_motion_dot": 7.68e-06,
        "meta_mean_motion_ddot": 0,
        "tle_line1": "1 30054U 99025PF  25347.66914916  .00000768  00000+0  70897-3 0  9994",
        "tle_line2": "2 30054  99.3717  19.8806 0275808   2.8447 120.1490 13.69866292943619"
      },
      "geometry": {
        "type": "Point",
        "coordinates": [
          -148.11369451272924,
          49.85915548786
        ]
      }
    },
    {
      "type": "Feature",
      "properties": {
        "norad_id": 30056,
        "name": "FENGYUN 1C DEB",
        "group": "fengyun-1c-debris",
        "lat": 81.63861401700281,
        "lon": 78.66268069320662,
        "alt_km": 1067.6494815311335,
        "timestamp": "2025-12-14T09:36:23.310070+00:00",
        "meta_object_name": "FENGYUN 1C DEB",
        "meta_object_id": "1999-025PH",
        "meta_epoch": "2025-12-13T12:10:15.567168",
        "meta_mean_motion": 13.73995293,
        "meta_eccentricity": 0.02995924,
        "meta_inclination": 98.3228,
        "meta_ra_of_asc_node": 173.056,
        "meta_arg_of_pericenter": 208.7618,
        "meta_mean_anomaly": 149.6728,
        "meta_ephemeris_type": 0,
        "meta_classification_type": "U",
        "meta_norad_cat_id": 30056,
        "meta_element_set_no": 999,
        "meta_rev_at_epoch": 93986,
        "meta_bstar": 0.0042444783,
        "meta_mean_motion_dot": 5.477e-05,
        "meta_mean_motion_ddot": 0,
        "tle_line1": "1 30056U 99025PH  25347.50712462  .00005477  00000+0  42445-2 0  9990",
        "tle_line2": "2 30056  98.3228 173.0560 0299592 208.7618 149.6728 13.73995293939861"
      },
      "geometry": {
        "type": "Point",
        "coordinates": [
          78.66268069320662,
          81.63861401700281
        ]
      }
    },
    {
      "type": "Feature",
      "properties": {
        "norad_id": 30057,
        "name": "FENGYUN 1C DEB",
        "group": "fengyun-1c-debris",
        "lat": 62.15480992054392,
        "lon": -105.8002817418433,
        "alt_km": 843.1894969608375,
        "timestamp": "2025-12-14T09:36:23.310081+00:00",
        "meta_object_name": "FENGYUN 1C DEB",
        "meta_object_id": "1999-025PJ",
        "meta_epoch": "2025-12-13T16:04:56.678880",
        "meta_mean_motion": 13.57126064,
        "meta_eccentricity": 0.0292554,
        "meta_inclination": 98.8835,
        "meta_ra_of_asc_node": 56.318,
        "meta_arg_of_pericenter": 144.0761,
        "meta_mean_anomaly": 8.3287,
        "meta_ephemeris_type": 0,
        "meta_classification_type": "U",
        "meta_norad_cat_id": 30057,
        "meta_element_set_no": 999,
        "meta_rev_at_epoch": 93248,
        "meta_bstar": 0.0017948291,
        "meta_mean_motion_dot": 1.651e-05,
        "meta_mean_motion_ddot": 0,
        "tle_line1": "1 30057U 99025PJ  25347.67010045  .00001651  00000+0  17948-2 0  9997",
        "tle_line2": "2 30057  98.8835  56.3180 0292554 144.0761   8.3287 13.57126064932480"
      },
      "geometry": {
        "type": "Point",
        "coordinates": [
          -105.8002817418433,
          62.15480992054392
        ]
      }
    },
    {
      "type": "Feature",
      "properties": {
        "norad_id": 30058,
        "name": "FENGYUN 1C DEB",
        "group": "fengyun-1c-debris",
        "lat": 49.17206901094467,
        "lon": -176.05205566692644,
        "alt_km": 850.0789534502655,
        "timestamp": "2025-12-14T09:36:23.310091+00:00",
        "meta_object_name": "FENGYUN 1C DEB",
        "meta_object_id": "1999-025PK",
        "meta_epoch": "2025-12-13T13:57:55.990656",
        "meta_mean_motion": 13.48238181,
        "meta_eccentricity": 0.03157627,
        "meta_inclination": 99.6498,
        "meta_ra_of_asc_node": 351.8003,
        "meta_arg_of_pericenter": 150.2947,
        "meta_mean_anomaly": 330.5574,
        "meta_ephemeris_type": 0,
        "meta_classification_type": "U",
        "meta_norad_cat_id": 30058,
        "meta_element_set_no": 999,
        "meta_rev_at_epoch": 92859,
        "meta_bstar": 0.00076337202,
        "meta_mean_motion_dot": 6e-06,
        "meta_mean_motion_ddot": 0,
        "tle_line1": "1 30058U 99025PK  25347.58189804  .00000600  00000+0  76337-3 0  9999",
        "tle_line2": "2 30058  99.6498 351.8003 0315762 150.2947 330.5574 13.48238181928594"
      },
      "geometry": {
        "type": "Point",
        "coordinates": [
          -176.05205566692644,
          49.17206901094467
        ]
      }
    }
  ]
}